{"type": "FeatureCollection", "features": [ {"type": "Feature", "properties": {"norad_id": 66474, "name": "STARLINK-35620", "group": "last-30-days", "lat": 39.32079488343827, "lon": 124.21210695592977, "alt_km": 406.2484442216419, "timestamp": "2025-12-14T03:55:51.546851+00:00", "meta": {"OBJECT_NAME": "STARLINK-35620", "OBJECT_ID": "2025-262U", "EPOCH": "2025-12-12T13:00:34.651008", "MEAN_MOTION": 15.51135131, "ECCENTRICITY": 0.00014651, "INCLINATION": 43.0009, "RA_OF_ASC_NODE": 72.1929, "ARG_OF_PERICENTER": 279.0822, "MEAN_ANOMALY": 80.9873, "EPHEMERIS_TYPE": 0, "CLASSIFICATION_TYPE": "U", "NORAD_CAT_ID": 66474, "ELEMENT_SET_NO": 999, "REV_AT_EPOCH": 553, "BSTAR": 0.0027986206, "MEAN_MOTION_DOT": 0.00170828, "MEAN_MOTION_DDOT": 0}, "tle": {"line1": "1 66474U 25262U   25346.54206772  .00170828  00000+0  27986-2 0  9996", "line2": "2 66474  43.0009  72.1929 0001465 279.0822  80.9873 15.51135131  5535"}}, "geometry": {"type": "Point", "coordinates": [124.21210695592977, 39.32079488343827]}}, {"type": "Feature", "properties": {"norad_id": 66475, "name": "STARLINK-35538", "group": "last-30-days", "lat": 10.650863230134892, "lon": 74.4707599925527, "alt_km": 443.9845170792387, "timestamp": "2025-12-14T03:55:51.546861+00:00", "meta": {"OBJECT_NAME": "STARLINK-35538", "OBJECT_ID": "2025-262V", "EPOCH": "2025-12-13T06:00:02.000160", "MEAN_MOTION": 15.43495328, "ECCENTRICITY": 8.411e-05, "INCLINATION": 43.0008, "RA_OF_ASC_NODE": 68.1033, "ARG_OF_PERICENTER": 262.7312, "MEAN_ANOMALY": 75.0531, "EPHEMERIS_TYPE": 0, "CLASSIFICATION_TYPE": "U", "NORAD_CAT_ID": 66475, "ELEMENT_SET_NO": 999, "REV_AT_EPOCH": 572, "BSTAR": -0.041021251, "MEAN_MOTION_DOT": -0.01679532, "MEAN_MOTION_DDOT": 0}, "tle": {"line1": "1 66475U 25262V   25347.25002315 -.01679532  00000+0 -41021-1 0  9997", "line2": "2 66475  43.0008  68.1033 0000841 262.7312  75.0531 15.43495328  5721"}}, "geometry": {"type": "Point", "coordinates": [74.4707599925527, 10.650863230134892]}}, {"type": "Feature", "properties": {"norad_id": 66476, "name": "STARLINK-35372", "group": "last-30-days", "lat": 18.663449736043923, "lon": 84.04907321557883, "alt_km": 440.6493591339304, "timestamp": "2025-12-14T03:55:51.546871+00:00", "meta": {"OBJECT_NAME": "STARLINK-35372", "OBJECT_ID": "2025-262W", "EPOCH": "2025-12-13T06:00:02.000160", "MEAN_MOTION": 15.44939822, "ECCENTRICITY": 0.00013628, "INCLINATION": 43, "RA_OF_ASC_NODE": 68.0811, "ARG_OF_PERICENTER": 266.5867, "MEAN_ANOMALY": 79.8051, "EPHEMERIS_TYPE": 0, "CLASSIFICATION_TYPE": "U", "NORAD_CAT_ID": 66476, "ELEMENT_SET_NO": 999, "REV_AT_EPOCH": 561, "BSTAR": -0.047448741, "MEAN_MOTION_DOT": -0.02034535, "MEAN_MOTION_DDOT": 0}, "tle": {"line1": "1 66476U 25262W   25347.25002315 -.02034535  00000+0 -47449-1 0  9997", "line2": "2 66476  43.0000  68.0811 0001362 266.5867  79.8051 15.44939822  5613"}}, "geometry": {"type": "Point", "coordinates": [84.04907321557883, 18.663449736043923]}}, {"type": "Feature", "properties": {"norad_id": 66477, "name": "STARLINK-35354", "group": "last-30-days", "lat": 31.360861053774553, "lon": 103.58930128584555, "alt_km": 431.33983902048476, "timestamp": "2025-12-14T03:55:51.546884+00:00", "meta": {"OBJECT_NAME": "STARLINK-35354", "OBJECT_ID": "2025-262X", "EPOCH": "2025-12-13T06:00:02.000160", "MEAN_MOTION": 15.47612478, "ECCENTRICITY": 0.00015697, "INCLINATION": 43, "RA_OF_ASC_NODE": 68.048, "ARG_OF_PERICENTER": 266.87, "MEAN_ANOMALY": 92.5075, "EPHEMERIS_TYPE": 0, "CLASSIFICATION_TYPE": "U", "NORAD_CAT_ID": 66477, "ELEMENT_SET_NO": 999, "REV_AT_EPOCH": 572, "BSTAR": -0.043661948, "MEAN_MOTION_DOT": -0.02052758, "MEAN_MOTION_DDOT": 0}, "tle": {"line1": "1 66477U 25262X   25347.25002315 -.02052758  00000+0 -43662-1 0  9998", "line2": "2 66477  43.0000  68.0480 0001569 266.8700  92.5075 15.47612478  5722"}}, "geometry": {"type": "Point", "coordinates": [103.58930128584555, 31.360861053774553]}}, {"type": "Feature", "properties": {"norad_id": 66478, "name": "STARLINK-35283", "group": "last-30-days", "lat": 37.51196220660636, "lon": 118.17519678733268, "alt_km": 417.1174323629675, "timestamp": "2025-12-14T03:55:51.546894+00:00", "meta": {"OBJECT_NAME": "STARLINK-35283", "OBJECT_ID": "2025-262Y", "EPOCH": "2025-12-13T07:31:57.455616", "MEAN_MOTION": 15.49123667, "ECCENTRICITY": 0.00025559, "INCLINATION": 42.9998, "RA_OF_ASC_NODE": 67.6633, "ARG_OF_PERICENTER": 345.0084, "MEAN_ANOMALY": 15.07, "EPHEMERIS_TYPE": 0, "CLASSIFICATION_TYPE": "U", "NORAD_CAT_ID": 66478, "ELEMENT_SET_NO": 999, "REV_AT_EPOCH": 565, "BSTAR": -0.016866791, "MEAN_MOTION_DOT": -0.00857194, "MEAN_MOTION_DDOT": 0}, "tle": {"line1": "1 66478U 25262Y   25347.31385944 -.00857194  00000+0 -16867-1 0  9990", "line2": "2 66478  42.9998  67.6633 0002555 345.0084  15.0700 15.49123667  5659"}}, "geometry": {"type": "Point", "coordinates": [118.17519678733268, 37.51196220660636]}}, {"type": "Feature", "properties": {"norad_id": 66479, "name": "STARLINK-35581", "group": "last-30-days", "lat": 40.736480675069046, "lon": 130.22952250012892, "alt_km": 414.91030794360177, "timestamp": "2025-12-14T03:55:51.546905+00:00", "meta": {"OBJECT_NAME": "STARLINK-35581", "OBJECT_ID": "2025-262Z", "EPOCH": "2025-12-13T05:59:05.063424", "MEAN_MOTION": 15.51254865, "ECCENTRICITY": 0.00137264, "INCLINATION": 43.0014, "RA_OF_ASC_NODE": 68.0399, "ARG_OF_PERICENTER": 252.2505, "MEAN_ANOMALY": 107.6857, "EPHEMERIS_TYPE": 0, "CLASSIFICATION_TYPE": "U", "NORAD_CAT_ID": 66479, "ELEMENT_SET_NO": 999, "REV_AT_EPOCH": 564, "BSTAR": 0.0027040297, "MEAN_MOTION_DOT": 0.00166209, "MEAN_MOTION_DDOT": 0}, "tle": {"line1": "1 66479U 25262Z   25347.24936416  .00166209  00000+0  27040-2 0  9993", "line2": "2 66479  43.0014  68.0399 0013726 252.2505 107.6857 15.51254865  5642"}}, "geometry": {"type": "Point", "coordinates": [130.22952250012892, 40.736480675069046]}}, {"type": "Feature", "properties": {"norad_id": 66480, "name": "STARLINK-35670", "group": "last-30-days", "lat": 40.92013741375584, "lon": 131.15275678792696, "alt_km": 409.3823087129322, "timestamp": "2025-12-14T03:55:51.546915+00:00", "meta": {"OBJECT_NAME": "STARLINK-35670", "OBJECT_ID": "2025-262AA", "EPOCH": "2025-12-13T05:58:19.839072", "MEAN_MOTION": 15.50577812, "ECCENTRICITY": 0.00023872, "INCLINATION": 43.0003, "RA_OF_ASC_NODE": 68.036, "ARG_OF_PERICENTER": 250.9817, "MEAN_ANOMALY": 109.0785, "EPHEMERIS_TYPE": 0, "CLASSIFICATION_TYPE": "U", "NORAD_CAT_ID": 66480, "ELEMENT_SET_NO": 999, "REV_AT_EPOCH": 564, "BSTAR": 0.0023314383, "MEAN_MOTION_DOT": 0.00138884, "MEAN_MOTION_DDOT": 0}, "tle": {"line1": "1 66480U 25262AA  25347.24884073  .00138884  00000+0  23314-2 0  9994", "line2": "2 66480  43.0003  68.0360 0002387 250.9817 109.0785 15.50577812  5647"}}, "geometry": {"type": "Point", "coordinates": [131.15275678792696, 40.92013741375584]}}, {"type": "Feature", "properties": {"norad_id": 66481, "name": "STARLINK-35698", "group": "last-30-days", "lat": 41.440105374177584, "lon": 134.00737179188107, "alt_km": 408.7082046206797, "timestamp": "2025-12-14T03:55:51.546925+00:00", "meta": {"OBJECT_NAME": "STARLINK-35698", "OBJECT_ID": "2025-262AB", "EPOCH": "2025-12-13T05:57:49.441824", "MEAN_MOTION": 15.50631843, "ECCENTRICITY": 0.00019088, "INCLINATION": 43.0016, "RA_OF_ASC_NODE": 68.0336, "ARG_OF_PERICENTER": 251.5487, "MEAN_ANOMALY": 108.5165, "EPHEMERIS_TYPE": 0, "CLASSIFICATION_TYPE": "U", "NORAD_CAT_ID": 66481, "ELEMENT_SET_NO": 999, "REV_AT_EPOCH": 564, "BSTAR": 0.0026752165, "MEAN_MOTION_DOT": 0.00160155, "MEAN_MOTION_DDOT": 0}, "tle": {"line1": "1 66481U 25262AB  25347.24848891  .00160155  00000+0  26752-2 0  9998", "line2": "2 66481  43.0016  68.0336 0001908 251.5487 108.5165 15.50631843  5644"}}, "geometry": {"type": "Point", "coordinates": [134.00737179188107, 41.440105374177584]}}, {"type": "Feature", "properties": {"norad_id": 66482, "name": "STARLINK-35648", "group": "last-30-days", "lat": 41.83305421609807, "lon": 136.55087645210466, "alt_km": 408.1935806215761, "timestamp": "2025-12-14T03:55:51.546936+00:00", "meta": {"OBJECT_NAME": "STARLINK-35648", "OBJECT_ID": "2025-262AC", "EPOCH": "2025-12-13T05:57:19.881792", "MEAN_MOTION": 15.50679681, "ECCENTRICITY": 0.00011334, "INCLINATION": 42.9979, "RA_OF_ASC_NODE": 68.0303, "ARG_OF_PERICENTER": 272.6819, "MEAN_ANOMALY": 87.3911, "EPHEMERIS_TYPE": 0, "CLASSIFICATION_TYPE": "U", "NORAD_CAT_ID": 66482, "ELEMENT_SET_NO": 999, "REV_AT_EPOCH": 548, "BSTAR": 0.0018845871, "MEAN_MOTION_DOT": 0.00112218, "MEAN_MOTION_DDOT": 0}, "tle": {"line1": "1 66482U 25262AC  25347.24814678  .00112218  00000+0  18846-2 0  9997", "line2": "2 66482  42.9979  68.0303 0001133 272.6819  87.3911 15.50679681  5485"}}, "geometry": {"type": "Point", "coordinates": [136.55087645210466, 41.83305421609807]}}, {"type": "Feature", "properties": {"norad_id": 66483, "name": "STARLINK-35654", "group": "last-30-days", "lat": 42.18047690803297, "lon": 139.20727432998234, "alt_km": 407.74349770333356, "timestamp": "2025-12-14T03:55:51.546946+00:00", "meta": {"OBJECT_NAME": "STARLINK-35654", "OBJECT_ID": "2025-262AD", "EPOCH": "2025-12-13T05:56:50.240544", "MEAN_MOTION": 15.50687936, "ECCENTRICITY": 6.952e-05, "INCLINATION": 42.9958, "RA_OF_ASC_NODE": 68.0274, "ARG_OF_PERICENTER": 270.6182, "MEAN_ANOMALY": 89.4599, "EPHEMERIS_TYPE": 0, "CLASSIFICATION_TYPE": "U", "NORAD_CAT_ID": 66483, "ELEMENT_SET_NO": 999, "REV_AT_EPOCH": 564, "BSTAR": 0.0022001817, "MEAN_MOTION_DOT": 0.00131431, "MEAN_MOTION_DDOT": 0}, "tle": {"line1": "1 66483U 25262AD  25347.24780371  .00131431  00000+0  22002-2 0  9997", "line2": "2 66483  42.9958  68.0274 0000695 270.6182  89.4599 15.50687936  5648"}}, "geometry": {"type": "Point", "coordinates": [139.20727432998234, 42.18047690803297]}}]}